{
  "type": "FeatureCollection",
  "features": [
    {
      "type": "Feature",
      "properties": {
        "norad_id": 66449,
        "name": "STARLINK-34720",
        "group": "last-30-days",
        "lat": 17.875121300631985,
        "lon": -107.65995992265067,
        "alt_km": 412.6422586009612,
        "timestamp": "2025-12-04T23:34:04.490239+00:00",
        "meta_object_name": "STARLINK-34720",
        "meta_object_id": "2025-259AD",
        "meta_epoch": "2025-12-04T18:00:02.000160",
        "meta_mean_motion": 15.50535042,
        "meta_eccentricity": 0.0001456,
        "meta_inclination": 43.0006,
        "meta_ra_of_asc_node": 93.9456,
        "meta_arg_of_pericenter": 262.4028,
        "meta_mean_anomaly": 34.3644,
        "meta_ephemeris_type": 0,
        "meta_classification_type": "U",
        "meta_norad_cat_id": 66449,
        "meta_element_set_no": 999,
        "meta_rev_at_epoch": 488,
        "meta_bstar": 0.00054425,
        "meta_mean_motion_dot": 0.00031666,
        "meta_mean_motion_ddot": 0,
        "tle_line1": "1 66449U 25259AD  25338.75002315  .00031666  00000+0  54425-3 0  9990",
        "tle_line2": "2 66449  43.0006  93.9456 0001456 262.4028  34.3644 15.50535042  4884"
      },
      "geometry": {
        "type": "Point",
        "coordinates": [
          -107.65995992265067,
          17.875121300631985
        ]
      }
    },
    {
      "type": "Feature",
      "properties": {
        "norad_id": 66450,
        "name": "STARLINK-35334",
        "group": "last-30-days",
        "lat": 16.63498301518661,
        "lon": -106.11774507012377,
        "alt_km": 413.12006165720504,
        "timestamp": "2025-12-04T23:34:04.490250+00:00",
        "meta_object_name": "STARLINK-35334",
        "meta_object_id": "2025-259AE",
        "meta_epoch": "2025-12-04T18:00:02.000160",
        "meta_mean_motion": 15.50578612,
        "meta_eccentricity": 0.0001705,
        "meta_inclination": 43.0006,
        "meta_ra_of_asc_node": 93.94,
        "meta_arg_of_pericenter": 278.5593,
        "meta_mean_anomaly": 20.1132,
        "meta_ephemeris_type": 0,
        "meta_classification_type": "U",
        "meta_norad_cat_id": 66450,
        "meta_element_set_no": 999,
        "meta_rev_at_epoch": 499,
        "meta_bstar": -0.00062922,
        "meta_mean_motion_dot": -0.00037081,
        "meta_mean_motion_ddot": 0,
        "tle_line1": "1 66450U 25259AE  25338.75002315 -.00037081  00000+0 -62922-3 0  9992",
        "tle_line2": "2 66450  43.0006  93.9400 0001705 278.5593  20.1132 15.50578612  4994"
      },
      "geometry": {
        "type": "Point",
        "coordinates": [
          -106.11774507012377,
          16.63498301518661
        ]
      }
    },
    {
      "type": "Feature",
      "properties": {
        "norad_id": 66454,
        "name": "VIASAT-3 F2",
        "group": "last-30-days",
        "lat": 4.732947219449231,
        "lon": -9.051021742730486,
        "alt_km": 20363.50188261038,
        "timestamp": "2025-12-04T23:34:04.490265+00:00",
        "meta_object_name": "VIASAT-3 F2",
        "meta_object_id": "2025-261A",
        "meta_epoch": "2025-12-04T01:07:27.782112",
        "meta_mean_motion": 2.28102609,
        "meta_eccentricity": 0.23421394,
        "meta_inclination": 5.5724,
        "meta_ra_of_asc_node": 293.1352,
        "meta_arg_of_pericenter": 184.2254,
        "meta_mean_anomaly": 209.6829,
        "meta_ephemeris_type": 0,
        "meta_classification_type": "U",
        "meta_norad_cat_id": 66454,
        "meta_element_set_no": 999,
        "meta_rev_at_epoch": 45,
        "meta_bstar": 0,
        "meta_mean_motion_dot": -5.6e-07,
        "meta_mean_motion_ddot": 0,
        "tle_line1": "1 66454U 25261A   25338.04684933 -.00000056  00000+0  00000+0 0  9999",
        "tle_line2": "2 66454   5.5724 293.1352 2342139 184.2254 209.6829  2.28102609   450"
      },
      "geometry": {
        "type": "Point",
        "coordinates": [
          -9.051021742730486,
          4.732947219449231
        ]
      }
    },
    {
      "type": "Feature",
      "properties": {
        "norad_id": 66455,
        "name": "ATLAS 5 CENTAUR R/B",
        "group": "last-30-days",
        "lat": 4.895182004573642,
        "lon": -15.16415321315245,
        "alt_km": 20936.702553325045,
        "timestamp": "2025-12-04T23:34:04.490277+00:00",
        "meta_object_name": "ATLAS 5 CENTAUR R/B",
        "meta_object_id": "2025-261B",
        "meta_epoch": "2025-12-04T12:52:51.619584",
        "meta_mean_motion": 2.28259385,
        "meta_eccentricity": 0.23296099,
        "meta_inclination": 6.1565,
        "meta_ra_of_asc_node": 292.4364,
        "meta_arg_of_pericenter": 184.835,
        "meta_mean_anomaly": 244.04,
        "meta_ephemeris_type": 0,
        "meta_classification_type": "U",
        "meta_norad_cat_id": 66455,
        "meta_element_set_no": 999,
        "meta_rev_at_epoch": 46,
        "meta_bstar": 0,
        "meta_mean_motion_dot": -5.9e-07,
        "meta_mean_motion_ddot": 0,
        "tle_line1": "1 66455U 25261B   25338.53670856 -.00000059  00000+0  00000+0 0  9996",
        "tle_line2": "2 66455   6.1565 292.4364 2329609 184.8350 244.0400  2.28259385   469"
      },
      "geometry": {
        "type": "Point",
        "coordinates": [
          -15.16415321315245,
          4.895182004573642
        ]
      }
    },
    {
      "type": "Feature",
      "properties": {
        "norad_id": 66456,
        "name": "STARLINK-35643",
        "group": "last-30-days",
        "lat": -7.335883853430648,
        "lon": -55.55494074416348,
        "alt_km": 409.21466413987855,
        "timestamp": "2025-12-04T23:34:04.490288+00:00",
        "meta_object_name": "STARLINK-35643",
        "meta_object_id": "2025-262A",
        "meta_epoch": "2025-12-04T18:00:02.000160",
        "meta_mean_motion": 15.53907459,
        "meta_eccentricity": 0.0001647,
        "meta_inclination": 42.9996,
        "meta_ra_of_asc_node": 117.8667,
        "meta_arg_of_pericenter": 276.5037,
        "meta_mean_anomaly": 55.4482,
        "meta_ephemeris_type": 0,
        "meta_classification_type": "U",
        "meta_norad_cat_id": 66456,
        "meta_element_set_no": 999,
        "meta_rev_at_epoch": 435,
        "meta_bstar": -0.036249,
        "meta_mean_motion_dot": -0.02128277,
        "meta_mean_motion_ddot": 0,
        "tle_line1": "1 66456U 25262A   25338.75002315 -.02128277  00000+0 -36249-1 0  9993",
        "tle_line2": "2 66456  42.9996 117.8667 0001647 276.5037  55.4482 15.53907459  4350"
      },
      "geometry": {
        "type": "Point",
        "coordinates": [
          -55.55494074416348,
          -7.335883853430648
        ]
      }
    },
    {
      "type": "Feature",
      "properties": {
        "norad_id": 66457,
        "name": "STARLINK-35466",
        "group": "last-30-days",
        "lat": -9.915649918496861,
        "lon": -52.69313926394389,
        "alt_km": 409.4292923711846,
        "timestamp": "2025-12-04T23:34:04.490299+00:00",
        "meta_object_name": "STARLINK-35466",
        "meta_object_id": "2025-262B",
        "meta_epoch": "2025-12-04T18:00:02.000160",
        "meta_mean_motion": 15.53909178,
        "meta_eccentricity": 0.0001541,
        "meta_inclination": 42.9995,
        "meta_ra_of_asc_node": 117.8571,
        "meta_arg_of_pericenter": 276.3079,
        "meta_mean_anomaly": 59.4789,
        "meta_ephemeris_type": 0,
        "meta_classification_type": "U",
        "meta_norad_cat_id": 66457,
        "meta_element_set_no": 999,
        "meta_rev_at_epoch": 435,
        "meta_bstar": -0.03633,
        "meta_mean_motion_dot": -0.02132536,
        "meta_mean_motion_ddot": 0,
        "tle_line1": "1 66457U 25262B   25338.75002315 -.02132536  00000+0 -36330-1 0  9998",
        "tle_line2": "2 66457  42.9995 117.8571 0001541 276.3079  59.4789 15.53909178  4355"
      },
      "geometry": {
        "type": "Point",
        "coordinates": [
          -52.69313926394389,
          -9.915649918496861
        ]
      }
    },
    {
      "type": "Feature",
      "properties": {
        "norad_id": 66458,
        "name": "STARLINK-35684",
        "group": "last-30-days",
        "lat": -8.62934973670682,
        "lon": -54.12847761416464,
        "alt_km": 409.30980015253135,
        "timestamp": "2025-12-04T23:34:04.490311+00:00",
        "meta_object_name": "STARLINK-35684",
        "meta_object_id": "2025-262C",
        "meta_epoch": "2025-12-04T18:00:02.000160",
        "meta_mean_motion": 15.53910345,
        "meta_eccentricity": 0.0001546,
        "meta_inclination": 42.9997,
        "meta_ra_of_asc_node": 117.8614,
        "meta_arg_of_pericenter": 275.678,
        "meta_mean_anomaly": 58.1912,
        "meta_ephemeris_type": 0,
        "meta_classification_type": "U",
        "meta_norad_cat_id": 66458,
        "meta_element_set_no": 999,
        "meta_rev_at_epoch": 435,
        "meta_bstar": -0.036354,
        "meta_mean_motion_dot": -0.02133882,
        "meta_mean_motion_ddot": 0,
        "tle_line1": "1 66458U 25262C   25338.75002315 -.02133882  00000+0 -36354-1 0  9990",
        "tle_line2": "2 66458  42.9997 117.8614 0001546 275.6780  58.1912 15.53910345  4354"
      },
      "geometry": {
        "type": "Point",
        "coordinates": [
          -54.12847761416464,
          -8.62934973670682
        ]
      }
    }
  ]
}